[{"OBJECT_NAME":"STARLINK-4729","OBJECT_ID":"2022-111AH","EPOCH":"2026-03-09T17:13:08.629536","MEAN_MOTION":15.08837677,"ECCENTRICITY":0.0001326,"INCLINATION":53.2158,"RA_OF_ASC_NODE":258.779,"ARG_OF_PERICENTER":89.1228,"MEAN_ANOMALY":270.9916,"EPHEMERIS_TYPE":0,"CLASSIFICATION_TYPE":"U","NORAD_CAT_ID":53804,"ELEMENT_SET_NO":999,"REV_AT_EPOCH":19389,"BSTAR":1.5779674e-5,"MEAN_MOTION_DOT":-3.7e-7,"MEAN_MOTION_DDOT":0},{"OBJECT_NAME":"LEMUR-2-LANGER2SPACE","OBJECT_ID":"2025-061H","EPOCH":"2026-03-09T22:29:21.653952","MEAN_MOTION":15.13463796,"ECCENTRICITY":0.00153346,"INCLINATION":97.5541,"RA_OF_ASC_NODE":45.3892,"ARG_OF_PERICENTER":237.418,"MEAN_ANOMALY":122.5571,"EPHEMERIS_TYPE":0,"CLASSIFICATION_TYPE":"U","NORAD_CAT_ID":63358,"ELEMENT_SET_NO":999,"REV_AT_EPOCH":5260,"BSTAR":0.00035148431,"MEAN_MOTION_DOT":6.238e-5,"MEAN_MOTION_DDOT":0}]
